#cP2017  9 20  0  0  0.00000000      96 ORBIT IGS14 HLM  IGS
## 1967 259200.00000000   900.00000000 58016 0.0000000000000
+   32   G01G02G03G04G05G06G07G08G09G10G11G12G13G14G15G16G17
+        G18G19G20G21G22G23G24G25G26G27G28G29G30G31G32  0  0
+          0  0  0  0  0  0  0  0  0  0  0  0  0  0  0  0  0
+          0  0  0  0  0  0  0  0  0  0  0  0  0  0  0  0  0
+          0  0  0  0  0  0  0  0  0  0  0  0  0  0  0  0  0
++         2  2  2  0  2  2  2  2  2  2  2  2  2  2  2  2  2
++         2  3  2  2  2  2  2  2  2  2  3  2  2  2  2  0  0
++         0  0  0  0  0  0  0  0  0  0  0  0  0  0  0  0  0
++         0  0  0  0  0  0  0  0  0  0  0  0  0  0  0  0  0
++         0  0  0  0  0  0  0  0  0  0  0  0  0  0  0  0  0
%c G  cc GPS ccc cccc cccc cccc cccc ccccc ccccc ccccc ccccc
%c cc cc ccc ccc cccc cccc cccc cccc ccccc ccccc ccccc ccccc
%f  1.2500000  1.025000000  0.00000000000  0.000000000000000
%f  0.0000000  0.000000000  0.00000000000  0.000000000000000
%i    0    0    0    0      0      0      0      0         0
%i    0    0    0    0      0      0      0      0         0
/* RAPID ORBIT COMBINATION FROM WEIGHTED AVERAGE OF:        
/* cod emr esa gfz jpl ngs sio usn whu                      
/* REFERENCED TO IGS TIME (IGST) AND TO WEIGHTED MEAN POLE: 
/* PCV:IGS14_1958 OL/AL:FES2004  NONE     Y  ORB:CMB CLK:CMB
*  2017  9 20 22 30  0.00000000
PG01 -13746.418526  22506.098562   1263.130003     -2.205888  9  3  6 107       
PG02  17695.829700  -6394.195986 -18104.968140    325.471142 11  8  8 130       
PG03 -12757.631681  13457.137825 -19012.964090    -65.521819  7  7  7 110       
PG04 -19840.359406  -8350.356225  15730.856309 999999.999999
PG05  26136.124105  -3579.071198   3846.663228    -28.723788  9  5  3 109       
PG06  12465.150043   8514.363923 -21837.552919    398.972185  9  4  3 122       
PG07  -3185.979650  22986.979070  12699.461766    303.528828  8  6  6  91       
PG08 -12370.989524   8670.694372  21893.078498    -74.211001  7  7  6  98       
PG09   5336.006832  23617.271311 -10933.893138    445.929603  8  7  7  84       
PG10 -17867.736225 -11111.715800  16310.718358     69.808673  8  7  6 128       
PG11 -10232.034582  22202.305826   9935.043056   -716.786276  8  7  4 125       
PG12  17115.734074 -10641.009839 -17362.168844    372.042068  6  3  5 108       
PG13  15673.528299   -784.514742  21312.607472    -91.675877  9  7  4 125       
PG14 -17403.772094 -15743.619926 -12314.583383    -84.205725  9  8 10 114       
PG15  10474.493889 -12241.816587  20892.519729   -355.980118  6  5  5 132       
PG16 -26557.408634    427.023886   3286.355755     37.021110  9  8  6  97       
PG17  14598.651527  21878.998167  -3882.587512   -155.800455 10  5  6 107       
PG18  -7230.936749 -15382.707766  21031.220519    629.969602  5  7  3 102       
PG19  16976.702453  16186.604626 -12512.586543   -485.219049 12  8  7 131       
PG20  16861.303514 -13477.133160  15314.074113    487.251774  7  5  6  85       
PG21  -1708.071002 -21911.746196  15642.571245   -477.701652  7  5  9  50       
PG22 -20174.777443  11113.358584 -13018.296805   -128.601010  7  5  5 113       
PG23  -3467.066804  19014.044576 -17772.170111   -217.502331  8  6  5  93       
PG24  14586.512878 -21594.527713   4279.123036    -39.898118  5  3  5 115       
PG25   3993.575190 -14790.606595 -21828.986935   -459.560363  8  6  5 112       
PG26 -25327.327203  -4211.954149  -6988.469959   -420.366734  4  8  7 140       
PG27 -17747.192457  -4083.931738  19351.655137    327.539331  5  6  6  97       
PG28  13558.489999  13522.676654  19033.795288    647.462412 10  9  9 130       
PG29  -1299.061549 -22615.228747 -13890.373128    560.581317  7  6  5  97       
PG30   5802.224053  17033.499892  19496.561620    139.391627  6  6  5 107       
PG31 -14098.527902  -5731.782275 -21724.266434    173.971192  8  8  7 107       
PG32 -17091.976645 -19267.113268  -6588.387790   -502.816432  5  6 11 133       
*  2017  9 20 22 45  0.00000000
PG01 -13821.078121  22099.741306   4127.858730     -2.206391  9  4  5 103       
PG02  16908.455800  -4269.563775 -19426.602539    325.462722 11  8  7 130       
PG03 -14847.751178  13411.115259 -17459.957023    -65.517812  7  7  7 113       
PG04 -20750.569888  -9784.556131  13661.223872 999999.999999
PG05  26442.211544  -3322.158510   1047.961286    -28.723178 10  6  3 107       
PG06  11307.218806  10708.606088 -21498.668379    398.974723  9  4  3 117       
PG07  -4019.714293  24014.476375  10252.963098    303.524513  9  6  6 117       
PG08 -13734.803734   6590.284138  21813.658970    -74.212391  7  7  6  86       
PG09   4384.576040  22586.477486 -13287.827704    445.935022  8  7  7  85       
PG10 -15919.930555 -11357.032993  18056.596382     69.817315  9  7  6 123       
PG11 -10494.579012  20824.785910  12234.932913   -716.787984  7  7  5 122       
PG12  18961.426234 -10491.563789 -15389.114621    372.040939  7  3  5 111       
PG13  16670.505502   1415.379269  20510.161593    -91.676311  9  7  4 126       
PG14 -17833.518374 -16991.215889  -9867.714686    -84.206501  9  7 10 125       
PG15  11991.259753 -10307.127528  21152.103235   -355.980511  7  5  5 122       
PG16 -26775.578164    276.592400    408.969023     37.021173  9  8  7 112       
PG17  14595.323094  22248.732859  -1014.040081   -155.798216 10  5  7  71       
PG18  -4923.577200 -15650.246699  21492.266387    629.970302  6  6  4 135       
PG19  17385.574023  17388.067399 -10016.303287   -485.217461 12  8  7 116       
PG20  18548.543218 -13460.977219  13258.017376    487.252514  8  5  6 123       
PG21   -854.267331 -23233.583170  13552.511317   -477.698962  6  4  9  78       
PG22 -21595.060041  10949.052139 -10721.774735   -128.612142  7  5  5 113       
PG23  -4811.237358  17287.380741 -19186.357504   -217.502401  8  7  5 105       
PG24  14586.866527 -20861.411188   7014.807073    -39.899605  6  3  5 124       
PG25   6420.637326 -14841.623884 -21182.877313   -459.566081  7  6  4 109       
PG26 -24395.166053  -4505.001313  -9617.321637   -420.356953  5  8  7 136       
PG27 -18817.313990  -5926.079561  17827.477309    327.543787  5  6  6  82       
PG28  11426.706499  13515.000542  20434.552660    647.465232 11  9  9 137       
PG29   -340.279317 -21198.228366 -16019.053009    560.577143  7  6  5 115       
PG30   4572.243976  18815.259231  18124.312224    139.389667  6  6  5 108       
PG31 -12870.667092  -7910.385074 -21766.942589    173.968871  7  7  7 138       
PG32 -17207.259904 -19905.730837  -3824.985298   -502.821378  5  5 11 141       
*  2017  9 20 23  0  0.00000000
PG01 -13784.917367  21402.776655   6920.155148     -2.206899  8  4  4 100       
PG02  16176.803626  -1986.007865 -20396.250333    325.454590 11  8  7 117       
PG03 -16745.998300  13453.713229 -15606.313647    -65.513862  6  7  7 105       
PG04 -21571.038648 -10981.193135  11360.151570 999999.999999
PG05  26447.216353  -3043.431534  -1768.565280    -28.721781 10  6  3 117       
PG06  10291.539266  12907.007096 -20789.295414    398.977287  9  4  3 117       
PG07  -4679.666719  24822.992041   7627.200885    303.520040  9  7  7 102       
PG08 -15189.179077   4610.496606  21360.857568    -74.213344  7  7  7 101       
PG09   3230.970510  21402.425269 -15413.322190    445.940367  8  7  7  91       
PG10 -13808.298792 -11723.583141  19493.730007     69.825919  9  7  5 117       
PG11 -10813.589367  19206.988698  14318.771635   -716.790162  7  8  5 124       
PG12  20576.236972 -10434.303324 -13151.796133    372.039692  7  3  6 100       
PG13  17728.086265   3461.695136  19351.119423    -91.677116 10  8  4 117       
PG14 -18177.961819 -17967.429981  -7250.505011    -84.207571 10  7 10 142       
PG15  13599.262722  -8441.496785  21041.460539   -355.980952  8  5  6 117       
PG16 -26678.255248    130.630697  -2475.298575     37.021160  9  8  7  92       
PG17  14435.755781  22344.416631   1871.865196   -155.796047  9  5  8  82       
PG18  -2599.798788 -16033.899245  21602.731635    629.971130  6  6  5 121       
PG19  17709.306544  18316.206887  -7347.473049   -485.215661 12  7  8 101       
PG20  19993.137891 -13474.421086  10971.626268    487.253766  8  5  6 110       
PG21   -151.780880 -24372.711430  11238.237264   -477.696142  7  3  9 131       
PG22 -22752.637187  10810.873010  -8239.026287   -128.623340  8  6  6 110       
PG23  -6320.439516  15514.818077 -20259.372958   -217.502973  8  8  6 106       
PG24  14508.986284 -19847.059571   9627.607811    -39.900176  7  3  5 131       
PG25   8750.980098 -15016.040411 -20175.936961   -459.571806  7  7  4 113       
PG26 -23193.713769  -4880.434149 -12081.510789   -420.347185  6  8  7 133       
PG27 -19873.224498  -7552.249407  15997.537803    327.548204  5  6  7  96       
PG28   9164.604787  13633.400934  21501.785782    647.468345 12  9  9 137       
PG29    817.986012 -19646.818656 -17872.439355    560.572864  7  6  4 130       
PG30   3510.852966  20502.978443  16438.831842    139.387807  7  6  6 103       
PG31 -11764.514781 -10139.121079 -21432.357245    173.966804  6  7  8 145       
PG32 -17167.768403 -20283.074826   -995.955908   -502.826269  6  5 11 119       
EOF
